GLOBALSTAR M035         
1 25851U 99037A   25179.89713941 -.00000098  00000+0 -12968-2 0  9991
2 25851  51.9967  28.8513 0013982   3.8205  98.1523 11.04538864 97552
GLOBALSTAR M032         
1 25852U 99037B   25179.49750688 -.00000074  00000+0 -22571-3 0  9993
2 25852  51.9916 214.1609 0012341 185.9410 174.1245 11.19061936136053
GLOBALSTAR M051         
1 25853U 99037C   25179.78138152 -.00000082  00000+0 -25824-3 0  9995
2 25853  51.9819  12.9224 0000388 145.1429 214.9407 11.42204775133718
GLOBALSTAR M030         
1 25854U 99037D   25179.93927413 -.00000092  00000+0 -35063-3 0  9996
2 25854  51.9839 177.9004 0002982  63.4110 296.7012 11.55108717151409
GLOBALSTAR M048         
1 25872U 99041A   25179.65289413 -.00000050  00000+0  54153-3 0  9995
2 25872  51.9391 308.7109 0013549 202.0135 171.1678 11.33857557126282
GLOBALSTAR M026         
1 25873U 99041B   25179.15501677 -.00000054  00000+0  37857-3 0  9996
2 25873  51.9980 148.3498 0002349 297.4060  75.7500 11.06840445149700
GLOBALSTAR M043         
1 25874U 99041C   25179.39345764 -.00000024  00000+0  13016-2 0  9993
2 25874  51.9418  57.4160 0013567 334.1281 196.5290 11.25695614124136
GLOBALSTAR M028         
1 25875U 99041D   25179.66225956 -.00000110  00000+0 -57298-4 0  9993
2 25875  51.9599 158.8478 0063343  96.1980 264.6101 12.50584240191619
